ONEWEB-0435             
1 51632U 22012L   25300.15252027  .00000600  00000+0  16812-2 0  9993
2 51632  87.8770  82.7410 0001682 109.4310 250.6999 13.10374295178790
ONEWEB-0436             
1 51633U 22012M   25300.01224698  .00000044  00000+0  80595-4 0  9995
2 51633  87.9123  52.2008 0001844 106.8256 253.3078 13.17650848182970
ONEWEB-0438             
1 51634U 22012N   25300.13590914 -.00000156  00000+0 -48430-3 0  9993
2 51634  87.8773  82.7451 0001419  90.8863 269.2427 13.10375817178821
ONEWEB-0439             
1 51635U 22012P   25300.13923294 -.00000084  00000+0 -27622-3 0  9995
2 51635  87.8775  82.7333 0001542  97.2502 262.8801 13.10375440178806
ONEWEB-0442             
1 51636U 22012Q   25300.08058175 -.00000030  00000+0 -11148-3 0  9994
2 51636  87.9115  52.2388 0001500  78.4705 281.6595 13.17648515182973
ONEWEB-0443             
1 51637U 22012R   25300.02405627  .00000037  00000+0  63260-4 0  9995
2 51637  87.9112  52.2563 0001373 101.9031 258.2254 13.17649125183014
ONEWEB-0444             
1 51638U 22012S   25300.12925604 -.00000496  00000+0 -14582-2 0  9991
2 51638  87.8770  82.7344 0001548  97.2586 262.8717 13.10372921178812
ONEWEB-0445             
1 51639U 22012T   25300.15086016  .00000559  00000+0  15638-2 0  9991
2 51639  87.8787  82.6900 0001694  89.3588 270.7734 13.10373302178826
